NORAD_CAT_ID,OBJECT_NAME,OBJECT_TYPE,EPOCH,MEAN_MOTION,ECCENTRICITY,INCLINATION,RA_OF_ASC_NODE,ARG_OF_PERICENTER,MEAN_ANOMALY,BSTAR,MEAN_MOTION_DOT,MEAN_MOTION_DDOT,TLE_LINE0,TLE_LINE1,TLE_LINE2,SEMIMAJOR_AXIS,PERIOD,APOGEE,PERIGEE,DECAYED
51810.0,STARLINK-3613,PAYLOAD,2024-07-24 22:52:59,15.08848559,0.0001726,53.216,110.2421,141.5243,218.5872,-5.6939e-06,-3.79e-06,0.0,0 STARLINK-3613,1 51810U 22017AU  24206.95347057 -.00000379  00000-0 -56939-5 0  9999,2 51810  53.2160 110.2421 0001726 141.5243 218.5872 15.08848559134599,6917.854,95.437,540.913,538.525,0.0
51810.0,STARLINK-3613,PAYLOAD,2024-07-25 03:39:09,15.08851766,0.0001447,53.2164,109.345,121.7906,238.3228,0.00017078,2.432e-05,0.0,0 STARLINK-3613,1 51810U 22017AU  24207.15218873  .00002432  00000-0  17078-3 0  9994,2 51810  53.2164 109.3450 0001447 121.7906 238.3228 15.08851766134746,6917.844,95.437,540.71,538.708,0.0
51810.0,STARLINK-3613,PAYLOAD,2024-07-25 22:43:47,15.08835917,0.0001462,53.2166,105.7734,118.3952,241.7188,0.00023806,3.502e-05,0.0,0 STARLINK-3613,1 51810U 22017AU  24207.94707775  .00003502  00000-0  23806-3 0  9990,2 51810  53.2166 105.7734 0001462 118.3952 241.7188 15.08835917134746,6917.893,95.438,540.769,538.746,0.0
51810.0,STARLINK-3613,PAYLOAD,2024-07-26 00:19:10,15.08837898,0.0001106,53.2157,105.4773,94.9981,265.1137,0.00027978,4.167e-05,0.0,0 STARLINK-3613,1 51810U 22017AU  24208.01331922  .00004167  00000-0  27978-3 0  9998,2 51810  53.2157 105.4773 0001106  94.9981 265.1137 15.08837898134870,6917.887,95.438,540.517,538.987,0.0
51810.0,STARLINK-3613,PAYLOAD,2024-07-26 17:48:24,15.08859138,0.0001571,53.2181,102.2133,110.7082,249.4078,-0.00036048,-6.024e-05,0.0,0 STARLINK-3613,1 51810U 22017AU  24208.74194833 -.00006024  00000-0 -36048-3 0  9990,2 51810  53.2181 102.2133 0001571 110.7082 249.4078 15.08859138134989,6917.822,95.436,540.774,538.6,0.0
51810.0,STARLINK-3613,PAYLOAD,2024-07-27 22:25:20,15.08843485,9.91e-05,53.2143,96.8493,111.7811,248.3286,-7.6468e-05,-1.505e-05,0.0,0 STARLINK-3613,1 51810U 22017AU  24209.93426774 -.00001505  00000-0 -76468-4 0  9994,2 51810  53.2143  96.8493 0000991 111.7811 248.3286 15.08843485135045,6917.87,95.437,540.42,539.049,0.0
51810.0,STARLINK-3613,PAYLOAD,2024-07-28 00:00:43,15.08840862,0.000113,53.2143,96.5523,122.6467,237.4635,-0.00013078,-2.369e-05,0.0,0 STARLINK-3613,1 51810U 22017AU  24210.00050888 -.00002369  00000-0 -13078-3 0  9999,2 51810  53.2143  96.5523 0001130 122.6467 237.4635 15.08840862135177,6917.878,95.438,540.524,538.961,0.0
51810.0,STARLINK-3613,PAYLOAD,2024-07-28 20:40:46,15.08832429,0.0001736,53.2175,92.6962,89.4143,270.7048,6.5122e-06,-1.84e-06,0.0,0 STARLINK-3613,1 51810U 22017AU  24210.86164677 -.00000184  00000-0  65122-5 0  9996,2 51810  53.2175  92.6962 0001736  89.4143 270.7048 15.08832429135302,6917.904,95.438,540.969,538.568,0.0
51810.0,STARLINK-3613,PAYLOAD,2024-07-28 22:16:09,15.0883519,0.0001454,53.2181,92.3989,82.4684,277.6474,-2.3406e-05,-6.6e-06,0.0,0 STARLINK-3613,1 51810U 22017AU  24210.92788571 -.00000660  00000-0 -23406-4 0  9996,2 51810  53.2181  92.3989 0001454  82.4684 277.6474 15.08835190135199,6917.895,95.438,540.766,538.754,0.0
51810.0,STARLINK-3613,PAYLOAD,2024-07-29 09:23:50,15.08837762,0.0001591,53.218,90.3164,80.7045,279.4128,0.00027584,4.104e-05,0.0,0 STARLINK-3613,1 51810U 22017AU  24211.39155520  .00004104  00000-0  27584-3 0  9995,2 51810  53.2180  90.3164 0001591  80.7045 279.4128 15.08837762135389,6917.887,95.438,540.853,538.652,0.0
51810.0,STARLINK-3613,PAYLOAD,2024-07-29 20:31:32,15.08835913,0.0001348,53.2159,88.2311,105.6472,254.4669,0.00021436,3.125e-05,0.0,0 STARLINK-3613,1 51810U 22017AU  24211.85524155  .00003125  00000-0  21436-3 0  9992,2 51810  53.2159  88.2311 0001348 105.6472 254.4669 15.08835913135453,6917.893,95.438,540.69,538.825,0.0
51810.0,STARLINK-3613,PAYLOAD,2024-07-29 22:06:56,15.08835244,0.0001325,53.2163,87.9327,105.07,255.0438,0.00017353,2.475e-05,0.0,0 STARLINK-3613,1 51810U 22017AU  24211.92148209  .00002475  00000-0  17353-3 0  9992,2 51810  53.2163  87.9327 0001325 105.0700 255.0438 15.08835244135340,6917.895,95.438,540.677,538.843,0.0
51810.0,STARLINK-3613,PAYLOAD,2024-07-30 09:14:37,15.08847216,0.0001503,53.2178,85.8519,99.5805,260.5357,0.00020521,2.98e-05,0.0,0 STARLINK-3613,1 51810U 22017AU  24212.38515447  .00002980  00000-0  20521-3 0  9997,2 51810  53.2178  85.8519 0001503  99.5805 260.5357 15.08847216135531,6917.858,95.437,540.763,538.684,0.0
51810.0,STARLINK-3613,PAYLOAD,2024-07-30 15:36:10,15.08844816,0.0001629,53.2173,84.6666,93.5047,266.6131,0.00027046,4.02e-05,0.0,0 STARLINK-3613,1 51810U 22017AU  24212.65012026  .00004020  00000-0  27046-3 0  9998,2 51810  53.2173  84.6666 0001629  93.5047 266.6131 15.08844816135571,6917.866,95.437,540.858,538.604,0.0
51810.0,STARLINK-3613,PAYLOAD,2024-07-30 21:57:43,15.08842011,0.000158,53.2172,83.4768,92.115,268.0023,0.00019365,2.795e-05,0.0,0 STARLINK-3613,1 51810U 22017AU  24212.91508132  .00002795  00000-0  19365-3 0  9997,2 51810  53.2172  83.4768 0001580  92.1150 268.0023 15.08842011135498,6917.874,95.437,540.832,538.646,0.0
51810.0,STARLINK-3613,PAYLOAD,2024-07-31 20:13:07,15.08831249,0.0001356,53.2156,79.3099,98.1476,261.967,-5.907e-06,-3.82e-06,0.0,0 STARLINK-3613,1 51810U 22017AU  24213.84244829 -.00000382  00000-0 -59070-5 0  9991,2 51810  53.2156  79.3099 0001356  98.1476 261.9670 15.08831249135759,6917.907,95.438,540.71,538.834,0.0
51810.0,STARLINK-3613,PAYLOAD,2024-07-31 21:48:30,15.08832401,0.0001332,53.2175,79.0122,104.7723,255.3417,-9.0249e-06,-4.31e-06,0.0,0 STARLINK-3613,1 51810U 22017AU  24213.90868731 -.00000431  00000-0 -90249-5 0  9990,2 51810  53.2175  79.0122 0001332 104.7723 255.3417 15.08832401135642,6917.904,95.438,540.69,538.847,0.0
51810.0,STARLINK-3613,PAYLOAD,2024-08-01 15:17:44,15.08842442,0.0001294,53.2181,75.7436,99.3732,260.7406,9.6957e-05,1.256e-05,0.0,0 STARLINK-3613,1 51810U 22017AU  24214.63731959  .00001256  00000-0  96957-4 0  9997,2 51810  53.2181  75.7436 0001294  99.3732 260.7406 15.08842442135752,6917.873,95.437,540.633,538.843,0.0
51810.0,STARLINK-3613,PAYLOAD,2024-08-01 20:03:53,15.08847789,0.0001358,53.2162,74.8518,98.6083,261.5063,0.00021526,3.14e-05,0.0,0 STARLINK-3613,1 51810U 22017AU  24214.83603753  .00003140  00000-0  21526-3 0  9992,2 51810  53.2162  74.8518 0001358  98.6083 261.5063 15.08847789135908,6917.857,95.437,540.661,538.782,0.0
51810.0,STARLINK-3613,PAYLOAD,2024-08-01 21:39:16,15.08852568,0.0001308,53.2162,74.5534,96.8536,263.2605,0.00022833,3.349e-05,0.0,0 STARLINK-3613,1 51810U 22017AU  24214.90227517  .00003349  00000-0  22833-3 0  9993,2 51810  53.2162  74.5534 0001308  96.8536 263.2605 15.08852568135790,6917.842,95.437,540.612,538.802,0.0
51810.0,STARLINK-3613,PAYLOAD,2024-08-02 13:33:08,15.08851655,0.0003132,53.2162,71.5805,79.4367,280.6978,0.00038788,5.892e-05,0.0,0 STARLINK-3613,1 51810U 22017AU  24215.56468072  .00005892  00000-0  38788-3 0  9990,2 51810  53.2162  71.5805 0003132  79.4367 280.6978 15.08851655135897,6917.845,95.437,541.876,537.543,0.0
51810.0,STARLINK-3613,PAYLOAD,2024-08-02 21:30:04,15.08833564,0.0001428,53.217,70.0958,88.9562,271.1593,-0.00011435,-2.107e-05,0.0,0 STARLINK-3613,1 51810U 22017AU  24215.89587991 -.00002107  00000-0 -11435-3 0  9996,2 51810  53.2170  70.0958 0001428  88.9562 271.1593 15.08833564136064,6917.9,95.438,540.753,538.777,0.0
51810.0,STARLINK-3613,PAYLOAD,2024-08-03 07:02:23,15.08842006,0.0001536,53.2171,68.3113,91.281,268.8358,0.00098293,0.00015391,0.0,0 STARLINK-3613,1 51810U 22017AU  24216.29332270  .00015391  00000-0  98293-3 0  9993,2 51810  53.2171  68.3113 0001536  91.2810 268.8358 15.08842006136121,6917.874,95.437,540.802,538.677,0.0
51810.0,STARLINK-3613,PAYLOAD,2024-08-03 14:59:19,15.08840774,0.0002261,53.2178,66.8274,103.5613,256.5631,0.0009367,0.00014651,0.0,0 STARLINK-3613,1 51810U 22017AU  24216.62452724  .00014651  00000-0  93670-3 0  9999,2 51810  53.2178  66.8274 0002261 103.5613 256.5631 15.08840774136053,6917.878,95.438,541.307,538.179,0.0
51810.0,STARLINK-3613,PAYLOAD,2024-08-03 21:20:51,15.08844154,0.0001457,53.2162,65.6355,96.6686,263.4472,0.0017921,0.00028352,0.0,0 STARLINK-3613,1 51810U 22017AU  24216.88948807  .00028352  00000-0  17921-2 0  9996,2 51810  53.2162  65.6355 0001457  96.6686 263.4472 15.08844154136215,6917.868,95.437,540.741,538.725,0.0
51810.0,STARLINK-3613,PAYLOAD,2024-08-04 06:53:10,15.08868256,0.0001301,53.2156,63.8504,86.9108,273.2033,0.0019829,0.00031435,0.0,0 STARLINK-3613,1 51810U 22017AU  24217.28692352  .00031435  00000-0  19829-2 0  9997,2 51810  53.2156  63.8504 0001301  86.9108 273.2033 15.08868256136157,6917.794,95.436,540.559,538.759,0.0
51810.0,STARLINK-3613,PAYLOAD,2024-08-04 19:36:15,15.08872426,0.0001251,53.2156,61.4705,86.9104,273.2032,0.0031342,0.00049991,0.0,0 STARLINK-3613,1 51810U 22017AU  24217.81684553  .00049991  00000-0  31342-2 0  9990,2 51810  53.2156  61.4705 0001251  86.9104 273.2032 15.08872426136359,6917.781,95.436,540.512,538.781,0.0
51810.0,STARLINK-3613,PAYLOAD,2024-08-04 21:11:38,15.08879511,0.0001194,53.2152,61.173,83.9473,276.1655,0.0034798,0.0005559,0.0,0 STARLINK-3613,1 51810U 22017AU  24217.88308403  .00055590  00000-0  34798-2 0  9994,2 51810  53.2152  61.1730 0001194  83.9473 276.1655 15.08879511136245,6917.76,95.435,540.451,538.799,0.0
51810.0,STARLINK-3613,PAYLOAD,2024-08-05 06:43:56,15.08868901,0.0001295,53.2151,59.3881,81.7433,278.3706,0.0015699,0.00024805,0.0,0 STARLINK-3613,1 51810U 22017AU  24218.28052004  .00024805  00000-0  15699-2 0  9996,2 51810  53.2151  59.3881 0001295  81.7433 278.3706 15.08868901136426,6917.792,95.436,540.553,538.761,0.0
51810.0,STARLINK-3613,PAYLOAD,2024-08-05 21:02:26,15.08826328,0.0001491,53.2149,56.7128,90.777,269.3393,0.0015334,0.00024191,0.0,0 STARLINK-3613,1 51810U 22017AU  24218.87669104  .00024191  00000-0  15334-2 0  9990,2 51810  53.2149  56.7128 0001491  90.7770 269.3393 15.08826328136519,6917.922,95.438,540.819,538.756,0.0
